NORAD_CAT_ID,OBJECT_NAME,OBJECT_TYPE,EPOCH,MEAN_MOTION,ECCENTRICITY,INCLINATION,RA_OF_ASC_NODE,ARG_OF_PERICENTER,MEAN_ANOMALY,BSTAR,MEAN_MOTION_DOT,MEAN_MOTION_DDOT,TLE_LINE0,TLE_LINE1,TLE_LINE2,SEMIMAJOR_AXIS,PERIOD,APOGEE,PERIGEE,DECAYED
55292.0,STARLINK-5325,PAYLOAD,2023-04-22 12:33:07,15.69934262,0.0003611,69.9969,167.4674,269.3945,90.6837,3.4715e-06,2.05e-06,0.0,0 STARLINK-5325,1 55292U 23010Z   23112.52300591  .00000205  00000-0  34715-5 0  9995,2 55292  69.9969 167.4674 0003611 269.3945  90.6837 15.69934262 15418,6737.222,91.724,361.52,356.654,0.0
55292.0,STARLINK-5325,PAYLOAD,2023-04-23 13:01:10,15.69922367,0.0003827,69.9966,164.6006,269.3657,90.71,-1.4149e-06,-3.83e-06,0.0,0 STARLINK-5325,1 55292U 23010Z   23113.54248006 -.00000383  00000-0 -14149-5 0  9998,2 55292  69.9966 164.6006 0003827 269.3657  90.7100 15.69922367 15262,6737.256,91.724,361.699,356.543,0.0
55292.0,STARLINK-5325,PAYLOAD,2023-04-24 02:46:55,15.69939224,0.0003257,69.9981,162.9895,270.1206,89.9617,3.1564e-05,3.586e-05,0.0,0 STARLINK-5325,1 55292U 23010Z   23114.11592267  .00003586  00000-0  31564-4 0  9998,2 55292  69.9981 162.9895 0003257 270.1206  89.9617 15.69939224 15356,6737.208,91.723,361.267,356.879,0.0
55292.0,STARLINK-5325,PAYLOAD,2023-04-25 12:25:31,15.69888593,0.000345,69.999,159.0492,261.8803,98.2002,-4.8713e-05,-6.057e-05,0.0,0 STARLINK-5325,1 55292U 23010Z   23115.51772547 -.00006057  00000-0 -48713-4 0  9996,2 55292  69.9990 159.0492 0003450 261.8803  98.2002 15.69888593 15882,6737.353,91.726,361.542,356.893,0.0
55292.0,STARLINK-5325,PAYLOAD,2023-04-25 20:04:32,15.6959973,0.0003867,69.9985,158.1537,242.9453,117.1348,-0.00056554,-0.00066785,0.0,0 STARLINK-5325,1 55292U 23010Z   23115.83648404 -.00066785  00000-0 -56554-3 0  9990,2 55292  69.9985 158.1537 0003867 242.9453 117.1348 15.69599730 15931,6738.179,91.743,362.65,357.439,0.0
55292.0,STARLINK-5325,PAYLOAD,2023-04-26 11:21:46,15.69931262,0.0003576,69.9993,156.3619,267.5664,92.5122,6.1229e-05,7.158e-05,0.0,0 STARLINK-5325,1 55292U 23010Z   23116.47346050  .00007158  00000-0  61229-4 0  9996,2 55292  69.9993 156.3619 0003576 267.5664  92.5122 15.69931262 16033,6737.231,91.724,361.505,356.686,0.0
55292.0,STARLINK-5325,PAYLOAD,2023-04-27 11:49:48,15.69923159,0.000304,69.997,153.4948,245.3195,114.7685,5.5532e-05,6.469e-05,0.0,0 STARLINK-5325,1 55292U 23010Z   23117.49292092  .00006469  00000-0  55532-4 0  9999,2 55292  69.9970 153.4948 0003040 245.3195 114.7685 15.69923159 16194,6737.254,91.724,361.167,357.071,0.0
55292.0,STARLINK-5325,PAYLOAD,2023-04-28 04:39:08,15.69888375,0.0003294,69.9974,151.5242,270.7921,89.2897,-5.8081e-05,-7.18e-05,0.0,0 STARLINK-5325,1 55292U 23010Z   23118.19384735 -.00007180  00000-0 -58081-4 0  9998,2 55292  69.9974 151.5242 0003294 270.7921  89.2897 15.69888375 15992,6737.353,91.726,361.438,356.999,0.0
55292.0,STARLINK-5325,PAYLOAD,2023-04-28 12:17:52,15.69915488,0.0003468,69.9989,150.6306,271.3809,88.699,-2.6905e-05,-3.445e-05,0.0,0 STARLINK-5325,1 55292U 23010Z   23118.51241086 -.00003445  00000-0 -26905-4 0  9995,2 55292  69.9989 150.6306 0003468 271.3809  88.6990 15.69915488 16044,6737.276,91.725,361.477,356.804,0.0
55292.0,STARLINK-5325,PAYLOAD,2023-04-29 05:07:05,15.69942754,0.0003831,69.9964,148.6572,287.244,72.8336,3.2104e-05,3.652e-05,0.0,0 STARLINK-5325,1 55292U 23010Z   23119.21326075  .00003652  00000-0  32104-4 0  9991,2 55292  69.9964 148.6572 0003831 287.2440  72.8336 15.69942754 16157,6737.198,91.723,361.644,356.482,0.0
55292.0,STARLINK-5325,PAYLOAD,2023-04-29 11:14:06,15.69938158,0.0003347,69.9973,147.9412,282.6404,77.4418,2.6371e-05,2.961e-05,0.0,0 STARLINK-5325,1 55292U 23010Z   23119.46812904  .00002961  00000-0  26371-4 0  9990,2 55292  69.9973 147.9412 0003347 282.6404  77.4418 15.69938158 16507,6737.211,91.723,361.331,356.821,0.0
55292.0,STARLINK-5325,PAYLOAD,2023-04-30 00:59:53,15.69903621,0.0002734,69.9969,146.3282,275.8929,84.1955,5.6756e-05,6.611e-05,0.0,0 STARLINK-5325,1 55292U 23010Z   23120.04159426  .00006611  00000-0  56756-4 0  9995,2 55292  69.9969 146.3282 0002734 275.8929  84.1955 15.69903621 16288,6737.31,91.725,361.017,357.333,0.0
55292.0,STARLINK-5325,PAYLOAD,2023-04-30 11:42:10,15.6990471,0.0003103,69.9955,145.0716,277.7688,82.3155,4.4797e-05,5.173e-05,0.0,0 STARLINK-5325,1 55292U 23010Z   23120.48761750  .00005173  00000-0  44797-4 0  9996,2 55292  69.9955 145.0716 0003103 277.7688  82.3155 15.69904710 16669,6737.307,91.725,361.262,357.081,0.0
55292.0,STARLINK-5325,PAYLOAD,2023-04-30 13:13:55,15.69896113,0.0003454,69.9953,144.8922,285.4258,74.6556,5.649e-05,6.577e-05,0.0,0 STARLINK-5325,1 55292U 23010Z   23120.55133925  .00006577  00000-0  56490-4 0  9993,2 55292  69.9953 144.8922 0003454 285.4258  74.6556 15.69896113 16364,6737.331,91.726,361.523,356.869,0.0
55292.0,STARLINK-5325,PAYLOAD,2023-05-01 04:31:25,15.69932185,0.0003683,69.9951,143.1004,284.0267,76.0519,-1.4208e-05,-1.922e-05,0.0,0 STARLINK-5325,1 55292U 23010Z   23121.18849179 -.00001922  00000-0 -14208-4 0  9990,2 55292  69.9951 143.1004 0003683 284.0267  76.0519 15.69932185 16460,6737.228,91.724,361.574,356.612,0.0
55292.0,STARLINK-5325,PAYLOAD,2023-05-01 12:10:11,15.69933946,0.0003197,69.9971,142.2085,278.4126,81.6707,-7.549e-06,-1.121e-05,0.0,0 STARLINK-5325,1 55292U 23010Z   23121.50707198 -.00001121  00000-0 -75490-5 0  9992,2 55292  69.9971 142.2085 0003197 278.4126  81.6707 15.69933946 16829,6737.223,91.724,361.242,356.934,0.0
55292.0,STARLINK-5325,PAYLOAD,2023-05-02 04:59:27,15.69922459,0.000332,69.9969,140.2373,276.4585,83.6233,1.8101e-05,1.964e-05,0.0,0 STARLINK-5325,1 55292U 23010Z   23122.20795823  .00001964  00000-0  18101-4 0  9990,2 55292  69.9969 140.2373 0003320 276.4585  83.6233 15.69922459 16620,6737.256,91.724,361.358,356.884,0.0
55292.0,STARLINK-5325,PAYLOAD,2023-05-02 12:38:13,15.69926149,0.0003052,69.9964,139.3409,262.9898,97.0951,1.3128e-05,1.366e-05,0.0,0 STARLINK-5325,1 55292U 23010Z   23122.52653953  .00001366  00000-0  13128-4 0  9992,2 55292  69.9964 139.3409 0003052 262.9898  97.0951 15.69926149 16988,6737.245,91.724,361.166,357.054,0.0
55292.0,STARLINK-5325,PAYLOAD,2023-05-03 10:02:45,15.69922975,0.0003105,69.9972,136.834,263.8474,96.2367,1.6343e-05,1.753e-05,0.0,0 STARLINK-5325,1 55292U 23010Z   23123.41857679  .00001753  00000-0  16343-4 0  9994,2 55292  69.9972 136.8340 0003105 263.8474  96.2367 15.69922975 16819,6737.254,91.724,361.211,357.027,0.0
55292.0,STARLINK-5325,PAYLOAD,2023-05-04 10:30:46,15.6992777,0.0003093,69.9979,133.9687,263.0845,96.9999,2.4547e-05,2.74e-05,0.0,0 STARLINK-5325,1 55292U 23010Z   23124.43804161  .00002740  00000-0  24547-4 0  9997,2 55292  69.9979 133.9687 0003093 263.0845  96.9999 15.69927770 16971,6737.241,91.724,361.189,357.022,0.0
55292.0,STARLINK-5325,PAYLOAD,2023-05-05 09:27:03,15.69923864,0.0003066,70.0002,131.2815,263.6275,96.4571,1.3418e-05,1.401e-05,0.0,0 STARLINK-5325,1 55292U 23010Z   23125.39379537  .00001401  00000-0  13418-4 0  9995,2 55292  70.0002 131.2815 0003066 263.6275  96.4571 15.69923864 17127,6737.252,91.724,361.182,357.051,0.0
55292.0,STARLINK-5325,PAYLOAD,2023-05-05 10:58:49,15.69923683,0.0003073,70.0004,131.1038,265.2968,94.7877,1.2137e-05,1.247e-05,0.0,0 STARLINK-5325,1 55292U 23010Z   23125.45751254  .00001247  00000-0  12137-4 0  9997,2 55292  70.0004 131.1038 0003073 265.2968  94.7877 15.69923683 17444,6737.252,91.724,361.188,357.047,0.0
55292.0,STARLINK-5325,PAYLOAD,2023-05-06 06:51:35,15.69926152,0.0003158,69.9998,128.7737,261.9346,98.1491,1.605e-05,1.718e-05,0.0,0 STARLINK-5325,1 55292U 23010Z   23126.28582810  .00001718  00000-0  16050-4 0  9990,2 55292  69.9998 128.7737 0003158 261.9346  98.1491 15.69926152 17576,6737.245,91.724,361.238,356.983,0.0
55292.0,STARLINK-5325,PAYLOAD,2023-05-07 02:44:28,15.69777482,0.0003465,70.0,126.4457,270.8464,89.2335,-0.00027266,-0.00032673,0.0,0 STARLINK-5325,1 55292U 23010Z   23127.11422078 -.00032673  00000-0 -27266-3 0  9998,2 55292  70.0000 126.4457 0003465 270.8464  89.2335 15.69777482 17396,6737.671,91.733,361.87,357.201,0.0
55292.0,STARLINK-5325,PAYLOAD,2023-05-07 07:19:58,15.69646003,0.0003345,69.999,125.9091,258.4686,101.6134,-0.00029917,-0.00035623,0.0,0 STARLINK-5325,1 55292U 23010Z   23127.30554335 -.00035623  00000-0 -29917-3 0  9994,2 55292  69.9990 125.9091 0003345 258.4686 101.6134 15.69646003 17428,6738.047,91.74,362.166,357.658,0.0
55292.0,STARLINK-5325,PAYLOAD,2023-05-08 01:41:15,15.69575231,0.0006575,69.9984,123.7601,236.8365,123.22,-0.00031708,-0.00037663,0.0,0 STARLINK-5325,1 55292U 23010Z   23128.07031393 -.00037663  00000-0 -31708-3 0  9990,2 55292  69.9984 123.7601 0006575 236.8365 123.2200 15.69575231 17547,6738.249,91.745,364.545,355.684,0.0
55292.0,STARLINK-5325,PAYLOAD,2023-05-08 14:00:01,15.66775066,0.0003734,70.0,122.3242,272.2707,99.5091,-0.0099677,-0.00956787,0.0,0 STARLINK-5325,1 55292U 23010Z   23128.58334491 -.00956787  00000-0 -99677-2 0  9996,2 55292  70.0000 122.3242 0003734 272.2707  99.5091 15.66775066 17620,6746.276,91.909,370.66,365.621,0.0
55292.0,STARLINK-5325,PAYLOAD,2023-05-08 22:00:00,15.66104553,0.0003633,70.0003,121.392,268.3489,182.5667,-0.0097058,-0.00910985,0.0,0 STARLINK-5325,1 55292U 23010Z   23128.91667824 -.00910985  00000-0 -97058-2 0  9993,2 55292  70.0003 121.3920 0003633 268.3489 182.5667 15.66104553  1303,6748.201,91.948,372.518,367.614,0.0
55292.0,STARLINK-5325,PAYLOAD,2023-05-09 06:00:00,15.65419125,0.000358,70.0005,120.4614,273.2061,256.0797,-0.0095604,-0.00863397,0.0,0 STARLINK-5325,1 55292U 23010Z   23129.25001157 -.00863397  00000-0 -95604-2 0  9991,2 55292  70.0005 120.4614 0003580 273.2061 256.0797 15.65419125 17735,6750.171,91.988,374.452,369.619,0.0
55292.0,STARLINK-5325,PAYLOAD,2023-05-09 11:25:34,15.6670795,0.0002844,69.9974,119.8323,282.8523,77.2353,-0.0027383,-0.00279445,0.0,0 STARLINK-5325,1 55292U 23010Z   23129.47609297 -.00279445  00000-0 -27383-2 0  9998,2 55292  69.9974 119.8323 0002844 282.8523  77.2353 15.66707950 18073,6746.468,91.912,370.252,366.414,0.0
